{
  "type": "FeatureCollection",
  "features": [
    {
      "type": "Feature",
      "properties": {
        "norad_id": 66885,
        "name": "STARLINK-35954",
        "group": "last-30-days",
        "lat": -50.89570443809813,
        "lon": -87.31783576599837,
        "alt_km": 353.6434765003014,
        "timestamp": "2025-12-22T09:53:36.145631+00:00",
        "meta_object_name": "STARLINK-35954",
        "meta_object_id": "2025-283H",
        "meta_epoch": "2025-12-22T04:00:01.998720",
        "meta_mean_motion": 15.74581519,
        "meta_eccentricity": 0.0001035,
        "meta_inclination": 53.1577,
        "meta_ra_of_asc_node": 26.6095,
        "meta_arg_of_pericenter": 87.9677,
        "meta_mean_anomaly": 215.6495,
        "meta_ephemeris_type": 0,
        "meta_classification_type": "U",
        "meta_norad_cat_id": 66885,
        "meta_element_set_no": 999,
        "meta_rev_at_epoch": 394,
        "meta_bstar": -0.011173,
        "meta_mean_motion_dot": -0.01467996,
        "meta_mean_motion_ddot": 0,
        "tle_line1": "1 66885U 25283H   25356.16668980 -.01467996  00000+0 -11173-1 0  9995",
        "tle_line2": "2 66885  53.1577  26.6095 0001035  87.9677 215.6495 15.74581519  3948"
      },
      "geometry": {
        "type": "Point",
        "coordinates": [
          -87.31783576599837,
          -50.89570443809813
        ]
      }
    },
    {
      "type": "Feature",
      "properties": {
        "norad_id": 66886,
        "name": "STARLINK-35900",
        "group": "last-30-days",
        "lat": -51.9315069380818,
        "lon": -81.41499576273416,
        "alt_km": 353.6893503263191,
        "timestamp": "2025-12-22T09:53:36.145641+00:00",
        "meta_object_name": "STARLINK-35900",
        "meta_object_id": "2025-283J",
        "meta_epoch": "2025-12-22T04:00:01.998720",
        "meta_mean_motion": 15.74588788,
        "meta_eccentricity": 0.0001082,
        "meta_inclination": 53.1577,
        "meta_ra_of_asc_node": 26.6013,
        "meta_arg_of_pericenter": 96.599,
        "meta_mean_anomaly": 210.8497,
        "meta_ephemeris_type": 0,
        "meta_classification_type": "U",
        "meta_norad_cat_id": 66886,
        "meta_element_set_no": 999,
        "meta_rev_at_epoch": 394,
        "meta_bstar": -0.011277,
        "meta_mean_motion_dot": -0.01480466,
        "meta_mean_motion_ddot": 0,
        "tle_line1": "1 66886U 25283J   25356.16668980 -.01480466  00000+0 -11277-1 0  9998",
        "tle_line2": "2 66886  53.1577  26.6013 0001082  96.5990 210.8497 15.74588788  3949"
      },
      "geometry": {
        "type": "Point",
        "coordinates": [
          -81.41499576273416,
          -51.9315069380818
        ]
      }
    },
    {
      "type": "Feature",
      "properties": {
        "norad_id": 66887,
        "name": "STARLINK-35925",
        "group": "last-30-days",
        "lat": -52.33369473645418,
        "lon": -78.38038607024548,
        "alt_km": 353.72218130174315,
        "timestamp": "2025-12-22T09:53:36.145651+00:00",
        "meta_object_name": "STARLINK-35925",
        "meta_object_id": "2025-283K",
        "meta_epoch": "2025-12-22T04:00:01.998720",
        "meta_mean_motion": 15.74585755,
        "meta_eccentricity": 0.0001067,
        "meta_inclination": 53.1576,
        "meta_ra_of_asc_node": 26.5975,
        "meta_arg_of_pericenter": 71.9943,
        "meta_mean_anomaly": 237.372,
        "meta_ephemeris_type": 0,
        "meta_classification_type": "U",
        "meta_norad_cat_id": 66887,
        "meta_element_set_no": 999,
        "meta_rev_at_epoch": 394,
        "meta_bstar": -0.01123,
        "meta_mean_motion_dot": -0.01474779,
        "meta_mean_motion_ddot": 0,
        "tle_line1": "1 66887U 25283K   25356.16668980 -.01474779  00000+0 -11230-1 0  9998",
        "tle_line2": "2 66887  53.1576  26.5975 0001067  71.9943 237.3720 15.74585755  3947"
      },
      "geometry": {
        "type": "Point",
        "coordinates": [
          -78.38038607024548,
          -52.33369473645418
        ]
      }
    },
    {
      "type": "Feature",
      "properties": {
        "norad_id": 66888,
        "name": "STARLINK-35919",
        "group": "last-30-days",
        "lat": -52.65413001391251,
        "lon": -75.32644114577964,
        "alt_km": 353.7888257622444,
        "timestamp": "2025-12-22T09:53:36.145663+00:00",
        "meta_object_name": "STARLINK-35919",
        "meta_object_id": "2025-283L",
        "meta_epoch": "2025-12-22T04:00:01.998720",
        "meta_mean_motion": 15.74555102,
        "meta_eccentricity": 0.0001184,
        "meta_inclination": 53.1578,
        "meta_ra_of_asc_node": 26.5933,
        "meta_arg_of_pericenter": 76.7016,
        "meta_mean_anomaly": 234.568,
        "meta_ephemeris_type": 0,
        "meta_classification_type": "U",
        "meta_norad_cat_id": 66888,
        "meta_element_set_no": 999,
        "meta_rev_at_epoch": 394,
        "meta_bstar": -0.010728,
        "meta_mean_motion_dot": -0.0141486,
        "meta_mean_motion_ddot": 0,
        "tle_line1": "1 66888U 25283L   25356.16668980 -.01414860  00000+0 -10728-1 0  9995",
        "tle_line2": "2 66888  53.1578  26.5933 0001184  76.7016 234.5680 15.74555102  3945"
      },
      "geometry": {
        "type": "Point",
        "coordinates": [
          -75.32644114577964,
          -52.65413001391251
        ]
      }
    },
    {
      "type": "Feature",
      "properties": {
        "norad_id": 66889,
        "name": "STARLINK-35852",
        "group": "last-30-days",
        "lat": -52.899546985743626,
        "lon": -72.15404893683417,
        "alt_km": 353.7207038585839,
        "timestamp": "2025-12-22T09:53:36.145673+00:00",
        "meta_object_name": "STARLINK-35852",
        "meta_object_id": "2025-283M",
        "meta_epoch": "2025-12-22T04:00:01.998720",
        "meta_mean_motion": 15.7458699,
        "meta_eccentricity": 0.0001068,
        "meta_inclination": 53.1577,
        "meta_ra_of_asc_node": 26.5888,
        "meta_arg_of_pericenter": 95.667,
        "meta_mean_anomaly": 217.5285,
        "meta_ephemeris_type": 0,
        "meta_classification_type": "U",
        "meta_norad_cat_id": 66889,
        "meta_element_set_no": 999,
        "meta_rev_at_epoch": 394,
        "meta_bstar": -0.011234,
        "meta_mean_motion_dot": -0.01475345,
        "meta_mean_motion_ddot": 0,
        "tle_line1": "1 66889U 25283M   25356.16668980 -.01475345  00000+0 -11234-1 0  9994",
        "tle_line2": "2 66889  53.1577  26.5888 0001068  95.6670 217.5285 15.74586990  3942"
      },
      "geometry": {
        "type": "Point",
        "coordinates": [
          -72.15404893683417,
          -52.899546985743626
        ]
      }
    },
    {
      "type": "Feature",
      "properties": {
        "norad_id": 66890,
        "name": "STARLINK-35885",
        "group": "last-30-days",
        "lat": -53.05249701680147,
        "lon": -69.14095175655616,
        "alt_km": 353.05549390694887,
        "timestamp": "2025-12-22T09:53:36.145685+00:00",
        "meta_object_name": "STARLINK-35885",
        "meta_object_id": "2025-283N",
        "meta_epoch": "2025-12-22T04:00:01.998720",
        "meta_mean_motion": 15.74657676,
        "meta_eccentricity": 7.89e-05,
        "meta_inclination": 53.1578,
        "meta_ra_of_asc_node": 26.5857,
        "meta_arg_of_pericenter": 134.8678,
        "meta_mean_anomaly": 180.0743,
        "meta_ephemeris_type": 0,
        "meta_classification_type": "U",
        "meta_norad_cat_id": 66890,
        "meta_element_set_no": 999,
        "meta_rev_at_epoch": 394,
        "meta_bstar": -0.010827,
        "meta_mean_motion_dot": -0.01431852,
        "meta_mean_motion_ddot": 0,
        "tle_line1": "1 66890U 25283N   25356.16668980 -.01431852  00000+0 -10827-1 0  9998",
        "tle_line2": "2 66890  53.1578  26.5857 0000789 134.8678 180.0743 15.74657676  3947"
      },
      "geometry": {
        "type": "Point",
        "coordinates": [
          -69.14095175655616,
          -53.05249701680147
        ]
      }
    },
    {
      "type": "Feature",
      "properties": {
        "norad_id": 66891,
        "name": "STARLINK-35855",
        "group": "last-30-days",
        "lat": -53.132186628686085,
        "lon": -65.80860747717365,
        "alt_km": 353.5938735580912,
        "timestamp": "2025-12-22T09:53:36.145695+00:00",
        "meta_object_name": "STARLINK-35855",
        "meta_object_id": "2025-283P",
        "meta_epoch": "2025-12-22T04:00:01.998720",
        "meta_mean_motion": 15.74578931,
        "meta_eccentricity": 0.0001038,
        "meta_inclination": 53.158,
        "meta_ra_of_asc_node": 26.581,
        "meta_arg_of_pericenter": 126.1683,
        "meta_mean_anomaly": 190.8616,
        "meta_ephemeris_type": 0,
        "meta_classification_type": "U",
        "meta_norad_cat_id": 66891,
        "meta_element_set_no": 999,
        "meta_rev_at_epoch": 394,
        "meta_bstar": -0.011118,
        "meta_mean_motion_dot": -0.01461478,
        "meta_mean_motion_ddot": 0,
        "tle_line1": "1 66891U 25283P   25356.16668980 -.01461478  00000+0 -11118-1 0  9990",
        "tle_line2": "2 66891  53.1580  26.5810 0001038 126.1683 190.8616 15.74578931  3942"
      },
      "geometry": {
        "type": "Point",
        "coordinates": [
          -65.80860747717365,
          -53.132186628686085
        ]
      }
    }
  ]
}